328P/LONEOS-Tucker,e,17.6632,341.6108,30.4974,4.197019,0.1146285,0.55127251,168.8665,01/05.0/2020,2000,g 14.5,4.0
# From MPC101101
329P/LINEAR-Catalina,e,21.6636,87.6855,343.5815,5.194142,0.0832594,0.67683501,124.5748,01/05.0/2020,2000,g 13.5,4.0
# From MPC105243
330P/Catalina,e,15.6929,293.0995,189.0084,6.634777,0.0576719,0.54943603,70.5991,01/05.0/2020,2000,g 12.0,4.0
# From MPC110497
331P/Gibbs,e,9.7403,216.7785,183.6441,3.002956,0.1894003,0.04049249,309.2131,01/05.0/2020,2000,g 12.0,4.0
# From MPEC 2016-K18
332P/Ikeya-Murakami,e,9.3819,3.7947,152.3924,3.087500,0.1816744,0.48949169,252.5415,01/05.0/2020,2000,g 18.0,4.0
# From MPEC 2016-EI8
332P-B/Ikeya-Murakami,e,9.3805,3.8028,152.3711,3.082329,0.1821317,0.48970701,359.9699,03/17.0/2016,2000,g 19.0,4.0
# From MPEC 2016-K18
332P-C/Ikeya-Murakami,e,9.3809,3.7951,152.3837,3.087466,0.1816774,0.48949706,252.5538,01/05.0/2020,2000,g 16.5,4.0
# From MPEC 2016-ED0
332P-D/Ikeya-Murakami,e,9.3761,3.7923,152.4393,3.081138,0.1822373,0.48977814,359.9486,03/17.0/2016,2000,g 19.0,4.0
# From MPEC 2016-ED0
332P-E/Ikeya-Murakami,e,9.3774,3.8228,152.2825,3.079877,0.1823493,0.48922008,359.9889,03/17.0/2016,2000,g 21.0,4.0
# From MPEC 2016-ED0
332P-F/Ikeya-Murakami,e,9.5293,3.4757,152.8203,3.163214,0.1751908,0.49918860,359.8501,03/17.0/2016,2000,g 21.0,4.0
# From MPEC 2016-ED0
332P-G/Ikeya-Murakami,e,9.2523,3.6955,154.4000,3.050519,0.1849880,0.49200362,359.9006,03/19.0/2016,2000,g 19.0,4.0
# From MPC100285
332P-H/Ikeya-Murakami,e,9.3815,3.7949,152.3844,3.087649,0.1816612,0.48953223,252.4983,01/05.0/2020,2000,g 19.0,4.0
# From MPEC 2016-ED0
332P-I/Ikeya-Murakami,e,9.3791,3.8048,152.3297,3.081767,0.1821815,0.48955490,359.9360,03/17.0/2016,2000,g 20.5,2.0
# From MPEC 2016-EI8
332P-J/Ikeya-Murakami,e,9.4296,3.6729,152.7712,3.115165,0.1792596,0.49429435,359.8613,03/17.0/2016,2000,g 20.5,2.0
# From MPC104796
333P/LINEAR,e,131.9561,115.6127,26.0867,4.221172,0.1136461,0.73596727,156.0088,01/05.0/2020,2000,g 15.0,4.0
# From MPC111774
334P/NEAT,e,20.5841,90.7730,89.3058,6.837093,0.0551311,0.35865803,51.7291,01/05.0/2020,2000,g 10.5,4.0
# From MPC100285
335P/Gibbs,e,7.2897,330.8421,162.2453,3.579103,0.1455603,0.54490377,221.5877,01/05.0/2020,2000,g 17.0,4.0
# From MPC105244
336P/McNaught,e,17.8340,298.2307,308.6824,5.028581,0.0874049,0.44591920,93.1448,01/05.0/2020,2000,g 13.5,4.0
# From MPC112394
337P/WISE,e,15.3736,106.0721,160.9627,3.287988,0.1653137,0.49695221,209.9341,01/05.0/2020,2000,g 17.0,4.0
# From MPC104796
338P/McNaught,e,25.3626,9.7880,4.4115,3.899336,0.1280024,0.41069333,145.8002,01/05.0/2020,2000,g 12.0,4.0
# From MPC101101
339P/Gibbs,e,5.7376,172.7592,27.5189,3.694842,0.1387747,0.63618596,174.9104,01/05.0/2020,2000,g 17.0,4.0
# From MPC102957
340P/Boattini,e,2.0797,291.7282,35.7701,4.252004,0.1124122,0.28037251,128.3667,01/05.0/2020,2000,g 13.0,4.0
# From MPC109148
341P/Gibbs,e,3.7939,30.0150,312.0892,4.295573,0.1107063,0.41474245,145.8660,01/05.0/2020,2000,g 12.5,4.0
# From MPC101101
342P/SOHO,e,12.6825,41.7254,59.6638,3.042063,0.1857598,0.98315634,0.0000,10/19.6189/2021,2000,g  9.0,4.0
# From MPC109148
343P/NEAT-LONEOS,e,5.5828,257.2477,137.3975,5.464113,0.0771657,0.58345061,82.7568,01/05.0/2020,2000,g 14.0,4.0
# From MPC109148
344P/Read,e,3.4902,273.1938,140.4561,4.869566,0.0917210,0.42124660,106.4432,01/05.0/2020,2000,g 13.0,4.0
# From MPC109148
345P/LINEAR,e,2.7259,154.4970,196.3515,4.041595,0.1213039,0.22020527,153.8435,01/05.0/2020,2000,g 12.0,4.0
# From MPC110086
346P/Catalina,e,22.1855,102.4683,336.0467,4.477191,0.1040389,0.50250691,109.7012,01/05.0/2020,2000,g 14.0,4.0
# From MPC108599
347P/PANSTARRS,e,11.7475,261.0506,98.2890,3.608147,0.1438062,0.38501591,174.0725,01/05.0/2020,2000,g 15.0,4.0
# From MPC104796
348P/PANSTARRS,e,17.7060,312.9559,135.0610,3.159993,0.1754587,0.30538585,225.1366,01/05.0/2020,2000,g 14.0,4.0
# From MPC112394
349P/Lemmon,e,5.4916,331.7566,256.0236,3.571110,0.1460492,0.29973467,125.8298,01/05.0/2020,2000,g 14.0,4.0
# From MPC111775
350P/McNaught,e,7.3585,65.4399,141.8106,4.103234,0.1185809,0.09045743,87.7681,01/05.0/2020,2000,g 14.0,4.0
# From MPC105244
351P/Wiegert-PANSTARRS,e,12.7907,283.4493,352.5818,4.436422,0.1054763,0.29623192,159.1295,01/05.0/2020,2000,g 12.5,4.0
# From MPC110086
352P/Skiff,e,21.0104,28.1261,309.0966,6.633002,0.0576951,0.61793530,53.4893,01/05.0/2020,2000,g 11.5,4.0
# From MPC108599
353P/McNaught,e,28.4224,121.5616,230.3781,4.171760,0.1156712,0.46962100,86.1639,01/05.0/2020,2000,g 14.5,4.0
# From MPC105545
354P/LINEAR,e,5.2553,320.1319,133.0978,2.289943,0.2844246,0.12562492,327.6898,01/05.0/2020,2000,g 15.5,4.0
# From MPC109594
355P/LINEAR-NEAT,e,11.0336,51.4496,336.2630,3.473560,0.1522446,0.50652878,123.9869,01/05.0/2020,2000,g 15.5,2.0
# From MPC109148
356P/WISE,e,9.6325,160.7892,226.0706,4.162152,0.1160719,0.35432438,86.9564,01/05.0/2020,2000,g 14.0,4.0
# From MPC114609
357P/Hill,e,6.3088,44.5945,1.4616,4.463655,0.1045125,0.43428681,61.2680,01/05.0/2020,2000,g 15.5,4.0
# From MPC106350
358P/PANSTARRS,e,11.0571,85.7192,299.7789,3.149450,0.1763405,0.23782102,111.7387,01/05.0/2020,2000,g 18.0,4.0
# From MPC110086
359P/LONEOS,e,10.2630,149.7653,200.1151,4.639500,0.0986273,0.32364474,85.5439,01/05.0/2020,2000,g 13.5,4.0
# From MPC108599
360P/WISE,e,24.0874,2.2024,354.1124,3.703709,0.1382766,0.49828067,120.2199,01/05.0/2020,2000,g 19.5,6.0
# From MPC114609
361P/Spacewatch,e,13.8837,203.2620,219.1543,4.942845,0.0896889,0.43772518,49.4868,01/05.0/2020,2000,g 12.0,4.0
# From MPEC 2017-V13
362P/,e,15.5624,192.6013,53.6381,3.966562,0.1247621,0.28019842,153.3212,01/05.0/2020,2000,g 12.9,2.0
# From MPC114609
363P/Lemmon,e,4.0107,167.1724,318.5366,3.427338,0.1553348,0.56047753,100.8604,01/05.0/2020,2000,g 17.5,4.0
# From MPC114609
364P/PANSTARRS,e,12.1508,46.2186,211.9629,2.878420,0.2018240,0.72260852,112.9459,01/05.0/2020,2000,g 17.0,2.0
# From MPC111775
365P/PANSTARRS,e,9.8401,87.4355,66.2486,3.181722,0.1736643,0.57441692,120.3551,01/05.0/2020,2000,g 17.0,4.0
# From MPC114610
366P/Spacewatch,e,8.8595,70.7536,153.1815,3.495754,0.1507970,0.34867457,80.3275,01/05.0/2020,2000,g 15.0,4.0
# From MPC112395
367P/Catalina,e,8.4638,58.7143,172.9288,3.505070,0.1501962,0.28073991,84.4799,01/05.0/2020,2000,g 17.5,2.0
# From MPC114610
368P/NEAT,e,15.4844,257.9752,118.7866,5.526728,0.0758581,0.62597780,36.2400,01/05.0/2020,2000,g 14.0,4.0
# From MPC114610
369P/Hill,e,10.3087,47.3122,13.2432,4.387853,0.1072324,0.55410964,47.9261,01/05.0/2020,2000,g 15.0,4.0
# From MPC114610
370P/NEAT,e,19.3976,55.1526,356.7296,6.439754,0.0603115,0.61427299,34.6570,01/05.0/2020,2000,g 13.0,4.0
# From MPC114610
371P/LINEAR-Skiff,e,17.3785,67.3317,308.4622,4.181811,0.1152544,0.47618500,52.7182,01/05.0/2020,2000,g 16.0,4.0
# From MPEC 2019-TG9
372P/McNaught,e,9.5094,325.8281,27.0500,4.500949,0.1032162,0.15232625,45.6077,01/05.0/2020,2000,g 13.5,4.0
# From MPC114610
373P/Rinner,e,13.7576,231.9542,221.1855,3.806485,0.1327144,0.39228206,35.9589,01/05.0/2020,2000,g 14.5,4.0
# From MPC114610
374P/Larson,e,10.7583,7.9223,51.5706,4.976822,0.0887720,0.46227159,31.8904,01/05.0/2020,2000,g 14.0,4.0
# From MPC114610
375P/Hill,e,17.3641,359.9592,119.4461,5.560623,0.0751656,0.65909395,28.5311,01/05.0/2020,2000,g 16.0,4.0
# From MPC114610
376P/LONEOS,e,1.1926,314.8645,285.4130,5.868556,0.0693278,0.51764261,6.7808,01/05.0/2020,2000,g 12.5,4.0
# From MPC115888
377P/Scotti,e,9.0216,226.0601,354.9131,6.714934,0.0566424,0.25288096,349.3667,01/05.0/2020,2000,g  9.5,4.0
# From MPEC 2019-TG9
378P/McNaught,e,19.1103,94.5142,194.2248,6.353760,0.0615401,0.46803442,342.0988,01/05.0/2020,2000,g 12.0,4.0
# From MPC115889
379P/Spacewatch,e,12.3840,184.0119,31.2319,3.527525,0.1487644,0.33847946,23.2650,01/05.0/2020,2000,g 15.0,4.0
# From MPEC 2019-TG9
380P/PANSTARRS,e,8.2370,133.0563,90.1200,4.539778,0.1018948,0.32829169,21.6004,01/05.0/2020,2000,g 12.5,4.0
# From MPEC 2019-TG9
381P/LINEAR-Spacewatch,e,28.3767,173.7917,173.0972,7.112568,0.0519594,0.68148865,5.2016,01/05.0/2020,2000,g 17.5,2.0
# From MPC115889
382P/Larson,e,7.6604,178.4571,174.6063,6.163006,0.0644192,0.29406154,305.6028,01/05.0/2020,2000,g  8.0,4.0
# From MPC118844
383P/Christensen,e,12.3224,207.8983,133.6185,3.542995,0.1477911,0.59942888,10.4625,01/05.0/2020,2000,g 18.0,4.0
# From MPC118844
384P/Kowalski,e,7.2811,354.2305,37.6488,2.901866,0.1993830,0.61529512,17.0648,01/05.0/2020,2000,g 19.5,4.0
# From MPC118844
385P/Hill,e,16.8261,357.0779,44.3279,4.287323,0.1110260,0.40111919,12.4594,01/05.0/2020,2000,g 13.0,4.0
# From MPEC 2019-X94
386P/PANSTARRS,e,15.2286,134.9505,353.2764,4.058308,0.1205554,0.41647266,332.5801,01/05.0/2020,2000,g 14.5,4.0
# From MPC118845
387P/Boattini,e,8.9170,259.3399,162.8024,4.802499,0.0936490,0.73600771,11.3150,01/05.0/2020,2000,g 15.0,4.0
# From MPC118845
388P/Gibbs,e,23.8585,37.0553,42.4175,5.249226,0.0819523,0.61804975,13.5537,01/05.0/2020,2000,g 13.0,4.0
# From MPC118845
389P/Siding Spring,e,160.0687,218.8377,249.2962,5.627873,0.0738223,0.70444747,0.4960,01/05.0/2020,2000,g 16.0,4.0
# From MPC118845
390P/Gibbs,e,18.5597,152.2800,232.3350,5.797586,0.0706046,0.70680587,354.5475,01/05.0/2020,2000,g 12.0,4.0
# From MPC118099
391P/Kowalski,e,21.2761,124.7344,186.5180,4.674299,0.0975280,0.12077998,64.2057,01/05.0/2020,2000,g  8.0,4.0
# From MPC118845
392P/LINEAR,e,4.9294,24.8892,71.9974,6.149898,0.0646253,0.68288521,354.3872,01/05.0/2020,2000,g 14.5,4.0
# From MPC118845
393P/Spacewatch-Hill,e,16.7978,36.4202,327.9500,4.781884,0.0942553,0.11989924,6.9513,01/05.0/2020,2000,g 11.0,4.0
# From MPC107687
1I/`Oumuamua,h,09/09.4886/2017,122.6778,24.5997,241.6845,1.199252,0.255240,2000,23.0,2.0
# From MPC118844
2I/Borisov,h,12/08.5552/2019,44.0526,308.1483,209.1255,3.356796,2.006562,2000,11.0,4.0
